0 SL-16 DEB
1 29098U 93016AM  13279.39935219  .00000534  00000-0  32035-3 0  6287
2 29098 070.8983 187.1110 0090846 307.4058 051.8538 14.09567696589092
0 SL-16 DEB
1 29098U 93016AM  13282.09600142  .00000302  00000-0  19278-3 0  6290
2 29098 070.8985 181.4699 0090390 303.3325 055.9004 14.09567801589472
0 SL-16 DEB
1 29098U 93016AM  13284.36686281  .00000734  00000-0  43021-3 0  6304
2 29098 070.9050 176.7165 0090612 299.6472 059.5877 14.09572466589794
0 SL-16 DEB
1 29098U 93016AM  13286.06999646  .00000497  00000-0  29998-3 0  6319
2 29098 070.9010 173.1609 0090607 297.5421 061.6238 14.09572806590031
0 SL-16 DEB
1 29098U 93016AM  13288.34085260  .00000561  00000-0  33514-3 0  6322
2 29098 070.9022 168.4097 0090873 294.3280 064.8419 14.09576100590357
0 SL-16 DEB
1 29098U 93016AM  13289.33434301  .00000678  00000-0  39915-3 0  6337
2 29098 070.9031 166.3312 0090485 292.5311 066.6276 14.09578981590493
